STARLINK-30816          
1 58162U 23166N   26068.71226148 -.00000043  00000+0  10661-4 0  9998
2 58162  53.1590 219.4458 0000899  82.7980 277.3123 15.30188916133183
EXO-0                   
1 59175U 23174DK  26068.71046781  .00011582  00000+0  36716-3 0  9992
2 59175  97.3864 148.9039 0009878 157.1125 203.0559 15.32821991129797
