[{"OBJECT_NAME":"STARLINK-30816","OBJECT_ID":"2023-166N","EPOCH":"2026-03-09T17:05:39.391872","MEAN_MOTION":15.30188916,"ECCENTRICITY":8.988e-5,"INCLINATION":53.159,"RA_OF_ASC_NODE":219.4458,"ARG_OF_PERICENTER":82.798,"MEAN_ANOMALY":277.3123,"EPHEMERIS_TYPE":0,"CLASSIFICATION_TYPE":"U","NORAD_CAT_ID":58162,"ELEMENT_SET_NO":999,"REV_AT_EPOCH":13318,"BSTAR":1.0660924e-5,"MEAN_MOTION_DOT":-4.3e-7,"MEAN_MOTION_DDOT":0},{"OBJECT_NAME":"EXO-0","OBJECT_ID":"2023-174DK","EPOCH":"2026-03-09T17:03:04.419648","MEAN_MOTION":15.32821991,"ECCENTRICITY":0.00098779,"INCLINATION":97.3864,"RA_OF_ASC_NODE":148.9039,"ARG_OF_PERICENTER":157.1125,"MEAN_ANOMALY":203.0559,"EPHEMERIS_TYPE":0,"CLASSIFICATION_TYPE":"U","NORAD_CAT_ID":59175,"ELEMENT_SET_NO":999,"REV_AT_EPOCH":12979,"BSTAR":0.00036716083,"MEAN_MOTION_DOT":0.00011582,"MEAN_MOTION_DDOT":0}]
